HST                     
1 20580U 90037B   26063.13533951  .00010319  00000+0  34382-3 0  9997
2 20580  28.4703  77.8870 0001725  70.3509 289.7272 15.29378725772469
POLAR                   
1 23802U 96013A   26061.74629649  .00000178  00000+0  00000+0 0  9990
2 23802  79.7411 228.2678 6362278 212.6879  83.6731  1.29845818143473
SWAS                    
1 25560U 98071A   26063.16505945  .00006712  00000+0  43181-3 0  9990
2 25560  69.8967 138.1975 0003563  21.7933 338.3381 15.08830448481420
CXO                     
1 25867U 99040B   26063.59985680  .00000824  00000+0  00000+0 0  9999
2 25867  54.4843 119.7682 8003286 310.7757   0.4217  0.37808937 16926
XMM-NEWTON              
1 25989U 99066A   26061.64181856  .00000062  00000+0  00000+0 0  9993
2 25989  65.0189 284.3763 4712552  66.8130 359.9781  0.50131664 22470
TERRA                   
1 25994U 99068A   26063.16861737  .00000655  00000+0  14267-3 0  9995
2 25994  97.9604 116.8140 0002341 164.7813 260.5333 14.61008222394270
CLUSTER II-FM7 (SAMBA)  
1 26410U 00041A   26063.25310773  .00003639  00000+0  00000+0 0  9992
2 26410 148.9920  34.5676 8908777 250.6745 359.7226  0.44785609 19832
CLUSTER II-FM8 (TANGO)  
1 26464U 00045B   26049.06287974  .00004776  00000+0  00000+0 0  9997
2 26464 149.0711  33.5376 8890045 249.4570 359.4916  0.44405995 19769
ODIN                    
1 26702U 01007A   26063.07607674  .00058508  00000+0  77727-3 0  9997
2 26702  97.4079  98.8926 0004097 154.0262 206.1200 15.58021445372960
TIMED                   
1 26998U 01055B   26063.15873225  .00001877  00000+0  17523-3 0  9998
2 26998  74.0660  86.4529 0002968 281.7720  78.3131 14.95002481315124
CORIOLIS                
1 27640U 03001A   26062.63950977  .00000195  00000+0  11238-3 0  9997
2 27640  98.7161  71.1242 0014499 153.1511 207.0418 14.19910037199246
SORCE                   
1 27651U 03004A   26062.65290785  .00004692  00000+0  35208-3 0  9997
2 27651  39.9905 143.5088 0016676   9.7243 350.3871 15.03042744256019
MOST                    
1 27843U 03031D   26063.03772616  .00000121  00000+0  75651-4 0  9991
2 27843  98.7081  72.2172 0009624 189.9216 170.1772 14.21297444175777
SCISAT 1                
1 27858U 03036A   26063.00996269  .00001329  00000+0  17486-3 0  9993
2 27858  73.9315  20.2948 0005878 114.2203 245.9588 14.81298503215871
SWIFT                   
1 28485U 04047A   26062.91438175  .00052647  00000+0  64171-3 0  9991
2 28485  20.5532 271.1351 0003110 318.2835  41.7372 15.58709156170369
HINODE (SOLAR-B)        
1 29479U 06041A   26063.05230454  .00000997  00000+0  18036-3 0  9997
2 29479  98.0627  80.7292 0016149 260.9119  99.0259 14.68463614 39449
SHIJIAN-6 02A (SJ-6 02A)
1 29505U 06046A   26063.16573123  .00008453  00000+0  44841-3 0  9995
2 29505  97.6510 103.4681 0004461 127.3294 232.8345 15.15602379 56352
