[{"OBJECT_NAME":"HST","OBJECT_ID":"1990-037B","EPOCH":"2026-03-04T03:14:53.333664","MEAN_MOTION":15.29378725,"ECCENTRICITY":0.0001725,"INCLINATION":28.4703,"RA_OF_ASC_NODE":77.887,"ARG_OF_PERICENTER":70.3509,"MEAN_ANOMALY":289.7272,"EPHEMERIS_TYPE":0,"CLASSIFICATION_TYPE":"U","NORAD_CAT_ID":20580,"ELEMENT_SET_NO":999,"REV_AT_EPOCH":77246,"BSTAR":0.00034382,"MEAN_MOTION_DOT":0.00010319,"MEAN_MOTION_DDOT":0},{"OBJECT_NAME":"POLAR","OBJECT_ID":"1996-013A","EPOCH":"2026-03-02T17:54:40.016736","MEAN_MOTION":1.29845818,"ECCENTRICITY":0.6362278,"INCLINATION":79.7411,"RA_OF_ASC_NODE":228.2678,"ARG_OF_PERICENTER":212.6879,"MEAN_ANOMALY":83.6731,"EPHEMERIS_TYPE":0,"CLASSIFICATION_TYPE":"U","NORAD_CAT_ID":23802,"ELEMENT_SET_NO":999,"REV_AT_EPOCH":14347,"BSTAR":0,"MEAN_MOTION_DOT":1.78e-6,"MEAN_MOTION_DDOT":0},{"OBJECT_NAME":"SWAS","OBJECT_ID":"1998-071A","EPOCH":"2026-03-04T03:57:41.136480","MEAN_MOTION":15.08830448,"ECCENTRICITY":0.0003563,"INCLINATION":69.8967,"RA_OF_ASC_NODE":138.1975,"ARG_OF_PERICENTER":21.7933,"MEAN_ANOMALY":338.3381,"EPHEMERIS_TYPE":0,"CLASSIFICATION_TYPE":"U","NORAD_CAT_ID":25560,"ELEMENT_SET_NO":999,"REV_AT_EPOCH":48142,"BSTAR":0.00043181,"MEAN_MOTION_DOT":6.712e-5,"MEAN_MOTION_DDOT":0},{"OBJECT_NAME":"CXO","OBJECT_ID":"1999-040B","EPOCH":"2026-03-04T14:23:47.627520","MEAN_MOTION":0.37808937,"ECCENTRICITY":0.80032862,"INCLINATION":54.4843,"RA_OF_ASC_NODE":119.7682,"ARG_OF_PERICENTER":310.7757,"MEAN_ANOMALY":0.4217,"EPHEMERIS_TYPE":0,"CLASSIFICATION_TYPE":"U","NORAD_CAT_ID":25867,"ELEMENT_SET_NO":999,"REV_AT_EPOCH":1692,"BSTAR":0,"MEAN_MOTION_DOT":8.24e-6,"MEAN_MOTION_DDOT":0},{"OBJECT_NAME":"XMM-NEWTON","OBJECT_ID":"1999-066A","EPOCH":"2026-03-02T15:24:13.123584","MEAN_MOTION":0.50131664,"ECCENTRICITY":0.47125523,"INCLINATION":65.0189,"RA_OF_ASC_NODE":284.3763,"ARG_OF_PERICENTER":66.813,"MEAN_ANOMALY":359.9781,"EPHEMERIS_TYPE":0,"CLASSIFICATION_TYPE":"U","NORAD_CAT_ID":25989,"ELEMENT_SET_NO":999,"REV_AT_EPOCH":2247,"BSTAR":0,"MEAN_MOTION_DOT":6.2e-7,"MEAN_MOTION_DDOT":0},{"OBJECT_NAME":"TERRA","OBJECT_ID":"1999-068A","EPOCH":"2026-03-04T04:02:48.540768","MEAN_MOTION":14.61008222,"ECCENTRICITY":0.0002341,"INCLINATION":97.9604,"RA_OF_ASC_NODE":116.814,"ARG_OF_PERICENTER":164.7813,"MEAN_ANOMALY":260.5333,"EPHEMERIS_TYPE":0,"CLASSIFICATION_TYPE":"U","NORAD_CAT_ID":25994,"ELEMENT_SET_NO":999,"REV_AT_EPOCH":39427,"BSTAR":0.00014267,"MEAN_MOTION_DOT":6.55e-6,"MEAN_MOTION_DDOT":0},{"OBJECT_NAME":"CLUSTER II-FM7 (SAMBA)","OBJECT_ID":"2000-041A","EPOCH":"2026-03-04T06:04:28.507872","MEAN_MOTION":0.44785609,"ECCENTRICITY":0.89087774,"INCLINATION":148.992,"RA_OF_ASC_NODE":34.5676,"ARG_OF_PERICENTER":250.6745,"MEAN_ANOMALY":359.7226,"EPHEMERIS_TYPE":0,"CLASSIFICATION_TYPE":"U","NORAD_CAT_ID":26410,"ELEMENT_SET_NO":999,"REV_AT_EPOCH":1983,"BSTAR":0,"MEAN_MOTION_DOT":3.639e-5,"MEAN_MOTION_DDOT":0},{"OBJECT_NAME":"CLUSTER II-FM8 (TANGO)","OBJECT_ID":"2000-045B","EPOCH":"2026-02-18T01:30:32.809536","MEAN_MOTION":0.44405995,"ECCENTRICITY":0.88900451,"INCLINATION":149.0711,"RA_OF_ASC_NODE":33.5376,"ARG_OF_PERICENTER":249.457,"MEAN_ANOMALY":359.4916,"EPHEMERIS_TYPE":0,"CLASSIFICATION_TYPE":"U","NORAD_CAT_ID":26464,"ELEMENT_SET_NO":999,"REV_AT_EPOCH":1976,"BSTAR":0,"MEAN_MOTION_DOT":4.776e-5,"MEAN_MOTION_DDOT":0},{"OBJECT_NAME":"ODIN","OBJECT_ID":"2001-007A","EPOCH":"2026-03-04T01:49:33.030336","MEAN_MOTION":15.58021445,"ECCENTRICITY":0.0004097,"INCLINATION":97.4079,"RA_OF_ASC_NODE":98.8926,"ARG_OF_PERICENTER":154.0262,"MEAN_ANOMALY":206.12,"EPHEMERIS_TYPE":0,"CLASSIFICATION_TYPE":"U","NORAD_CAT_ID":26702,"ELEMENT_SET_NO":999,"REV_AT_EPOCH":37296,"BSTAR":0.00077727,"MEAN_MOTION_DOT":0.00058508,"MEAN_MOTION_DDOT":0},{"OBJECT_NAME":"TIMED","OBJECT_ID":"2001-055B","EPOCH":"2026-03-04T03:48:34.466400","MEAN_MOTION":14.95002481,"ECCENTRICITY":0.0002968,"INCLINATION":74.066,"RA_OF_ASC_NODE":86.4529,"ARG_OF_PERICENTER":281.772,"MEAN_ANOMALY":78.3131,"EPHEMERIS_TYPE":0,"CLASSIFICATION_TYPE":"U","NORAD_CAT_ID":26998,"ELEMENT_SET_NO":999,"REV_AT_EPOCH":31512,"BSTAR":0.00017523,"MEAN_MOTION_DOT":1.877e-5,"MEAN_MOTION_DDOT":0},{"OBJECT_NAME":"CORIOLIS","OBJECT_ID":"2003-001A","EPOCH":"2026-03-03T15:20:53.644128","MEAN_MOTION":14.19910037,"ECCENTRICITY":0.0014499,"INCLINATION":98.7161,"RA_OF_ASC_NODE":71.1242,"ARG_OF_PERICENTER":153.1511,"MEAN_ANOMALY":207.0418,"EPHEMERIS_TYPE":0,"CLASSIFICATION_TYPE":"U","NORAD_CAT_ID":27640,"ELEMENT_SET_NO":999,"REV_AT_EPOCH":19924,"BSTAR":0.00011238,"MEAN_MOTION_DOT":1.95e-6,"MEAN_MOTION_DDOT":0},{"OBJECT_NAME":"SORCE","OBJECT_ID":"2003-004A","EPOCH":"2026-03-03T15:40:11.238240","MEAN_MOTION":15.03042744,"ECCENTRICITY":0.00166768,"INCLINATION":39.9905,"RA_OF_ASC_NODE":143.5088,"ARG_OF_PERICENTER":9.7243,"MEAN_ANOMALY":350.3871,"EPHEMERIS_TYPE":0,"CLASSIFICATION_TYPE":"U","NORAD_CAT_ID":27651,"ELEMENT_SET_NO":999,"REV_AT_EPOCH":25601,"BSTAR":0.00035207648,"MEAN_MOTION_DOT":4.692e-5,"MEAN_MOTION_DDOT":0},{"OBJECT_NAME":"MOST","OBJECT_ID":"2003-031D","EPOCH":"2026-03-04T00:54:19.540224","MEAN_MOTION":14.21297444,"ECCENTRICITY":0.0009624,"INCLINATION":98.7081,"RA_OF_ASC_NODE":72.2172,"ARG_OF_PERICENTER":189.9216,"MEAN_ANOMALY":170.1772,"EPHEMERIS_TYPE":0,"CLASSIFICATION_TYPE":"U","NORAD_CAT_ID":27843,"ELEMENT_SET_NO":999,"REV_AT_EPOCH":17577,"BSTAR":7.5651e-5,"MEAN_MOTION_DOT":1.21e-6,"MEAN_MOTION_DDOT":0},{"OBJECT_NAME":"SCISAT 1","OBJECT_ID":"2003-036A","EPOCH":"2026-03-04T00:14:20.776416","MEAN_MOTION":14.81298503,"ECCENTRICITY":0.0005878,"INCLINATION":73.9315,"RA_OF_ASC_NODE":20.2948,"ARG_OF_PERICENTER":114.2203,"MEAN_ANOMALY":245.9588,"EPHEMERIS_TYPE":0,"CLASSIFICATION_TYPE":"U","NORAD_CAT_ID":27858,"ELEMENT_SET_NO":999,"REV_AT_EPOCH":21587,"BSTAR":0.00017486,"MEAN_MOTION_DOT":1.329e-5,"MEAN_MOTION_DDOT":0},{"OBJECT_NAME":"SWIFT","OBJECT_ID":"2004-047A","EPOCH":"2026-03-03T21:56:42.583200","MEAN_MOTION":15.58709156,"ECCENTRICITY":0.000311,"INCLINATION":20.5532,"RA_OF_ASC_NODE":271.1351,"ARG_OF_PERICENTER":318.2835,"MEAN_ANOMALY":41.7372,"EPHEMERIS_TYPE":0,"CLASSIFICATION_TYPE":"U","NORAD_CAT_ID":28485,"ELEMENT_SET_NO":999,"REV_AT_EPOCH":17036,"BSTAR":0.00064171,"MEAN_MOTION_DOT":0.00052647,"MEAN_MOTION_DDOT":0},{"OBJECT_NAME":"HINODE (SOLAR-B)","OBJECT_ID":"2006-041A","EPOCH":"2026-03-04T01:15:19.112256","MEAN_MOTION":14.68463614,"ECCENTRICITY":0.0016149,"INCLINATION":98.0627,"RA_OF_ASC_NODE":80.7292,"ARG_OF_PERICENTER":260.9119,"MEAN_ANOMALY":99.0259,"EPHEMERIS_TYPE":0,"CLASSIFICATION_TYPE":"U","NORAD_CAT_ID":29479,"ELEMENT_SET_NO":999,"REV_AT_EPOCH":3944,"BSTAR":0.00018036,"MEAN_MOTION_DOT":9.97e-6,"MEAN_MOTION_DDOT":0},{"OBJECT_NAME":"SHIJIAN-6 02A (SJ-6 02A)","OBJECT_ID":"2006-046A","EPOCH":"2026-03-04T03:58:39.178272","MEAN_MOTION":15.15602379,"ECCENTRICITY":0.0004461,"INCLINATION":97.651,"RA_OF_ASC_NODE":103.4681,"ARG_OF_PERICENTER":127.3294,"MEAN_ANOMALY":232.8345,"EPHEMERIS_TYPE":0,"CLASSIFICATION_TYPE":"U","NORAD_CAT_ID":29505,"ELEMENT_SET_NO":999,"REV_AT_EPOCH":5635,"BSTAR":0.00044841,"MEAN_MOTION_DOT":8.453e-5,"MEAN_MOTION_DDOT":0}]
